{
"type": "FeatureCollection",
"name": "cameron_centroids",
"features": [
{ "type": "Feature", "properties": { "id": null, "owner": "Richard Bennehan", "from": "UNC Trustees", "notes": "see also Orange DB 9-24", "DB": "5-624", "deedcounty": "Orange", "deed_date": "1796-11-28", "end_date": "1825-12-31", "start_epoch": -5462190000000, "end_epoch": -4544276400000, "plantation": null }, "geometry": { "type": "Point", "coordinates": [ -78.8547066, 36.1262051 ] } },
{ "type": "Feature", "properties": { "id": null, "owner": "Richard Bennehan", "from": "Tyree Harris", "notes": null, "DB": "00133_op0101", "deedcounty": null, "deed_date": "1776-05-24", "end_date": "1825-12-31", "start_epoch": -6109585200000, "end_epoch": -4544276400000, "plantation": null }, "geometry": { "type": "Point", "coordinates": [ -78.8242609, 36.1163725 ] } },
{ "type": "Feature", "properties": { "id": null, "owner": "Richard Bennehan", "from": "John Tilley Jr", "notes": null, "DB": "10-48", "deedcounty": "Orange", "deed_date": "1801-12-23", "end_date": "1825-12-31", "start_epoch": -5302350000000, "end_epoch": -4544276400000, "plantation": null }, "geometry": { "type": "Point", "coordinates": [ -78.8428816, 36.1382515 ] } },
{ "type": "Feature", "properties": { "id": null, "owner": "Richard Bennehan", "from": "James Williams", "notes": null, "DB": "6-41", "deedcounty": "Orange", "deed_date": "1797-07-04", "end_date": "1825-12-31", "start_epoch": -5443354800000, "end_epoch": -4544276400000, "plantation": null }, "geometry": { "type": "Point", "coordinates": [ -78.8620501, 36.1380791 ] } },
{ "type": "Feature", "properties": { "id": null, "owner": "Richard Bennehan", "from": "Anthony Ricketts", "notes": null, "DB": "10-46", "deedcounty": "Orange", "deed_date": "1801-04-16", "end_date": "1825-12-31", "start_epoch": -5324036400000, "end_epoch": -4544276400000, "plantation": null }, "geometry": { "type": "Point", "coordinates": [ -78.8400913, 36.1450465 ] } },
{ "type": "Feature", "properties": { "id": null, "owner": "Richard Bennehan", "from": "UNC Trustees", "notes": null, "DB": "8-233", "deedcounty": "Orange", "deed_date": "1799-11-28", "end_date": "1825-12-31", "start_epoch": -5367582000000, "end_epoch": -4544276400000, "plantation": null }, "geometry": { "type": "Point", "coordinates": [ -78.8519601, 36.1393316 ] } },
{ "type": "Feature", "properties": { "id": null, "owner": "Thomas D. Bennehan", "from": "William Horton", "notes": "Banks Tract", "DB": "22-11", "deedcounty": "Orange", "deed_date": "1830-03-23", "end_date": "1847-06-24", "start_epoch": -4410961200000, "end_epoch": -3866468400000, "plantation": null }, "geometry": { "type": "Point", "coordinates": [ -78.8463427, 36.1315204 ] } },
{ "type": "Feature", "properties": { "id": null, "owner": "Duncan Cameron", "from": "Allen Cain heirs", "notes": null, "DB": "25-242", "deedcounty": "Orange", "deed_date": "1832-11-27", "end_date": "1853-01-03", "start_epoch": -4326289200000, "end_epoch": -3691940400000, "plantation": null }, "geometry": { "type": "Point", "coordinates": [ -78.8549117, 36.0863008 ] } },
{ "type": "Feature", "properties": { "id": null, "owner": "Duncan Cameron", "from": "John Pryor Smith", "notes": null, "DB": "12-108", "deedcounty": "Orange", "deed_date": "1805-11-13", "end_date": "1853-01-03", "start_epoch": -5179575600000, "end_epoch": -3691940400000, "plantation": null }, "geometry": { "type": "Point", "coordinates": [ -78.8466057, 36.0784914 ] } },
{ "type": "Feature", "properties": { "id": null, "owner": "Richard Bennehan", "from": "Judith Stagg", "notes": null, "DB": "3-51", "deedcounty": "Orange", "deed_date": "1787-02-27", "end_date": "1825-12-31", "start_epoch": -5769946800000, "end_epoch": -4544276400000, "plantation": "Stagville" }, "geometry": { "type": "Point", "coordinates": [ -78.8372617, 36.1229991 ] } },
{ "type": "Feature", "properties": { "id": null, "owner": "Richard Bennehan", "from": "James Monroe", "notes": null, "DB": "3-166", "deedcounty": "Orange", "deed_date": "1786-08-31", "end_date": "1810-07-18", "start_epoch": -5785498800000, "end_epoch": -5032004400000, "plantation": null }, "geometry": { "type": "Point", "coordinates": [ -78.8367706, 36.1026194 ] } },
{ "type": "Feature", "properties": { "id": null, "owner": "Duncan Cameron", "from": "Hugh Cain heirs", "notes": null, "DB": "24-1", "deedcounty": "Orange", "deed_date": "1827-08-09", "end_date": "1853-01-03", "start_epoch": -4493646000000, "end_epoch": -3691940400000, "plantation": null }, "geometry": { "type": "Point", "coordinates": [ -78.8667781, 36.0910454 ] } },
{ "type": "Feature", "properties": { "id": null, "owner": "Duncan Cameron", "from": "Hugh Cain", "notes": null, "DB": "15-382", "deedcounty": "Orange", "deed_date": "1816-06-05", "end_date": "1853-01-03", "start_epoch": -4846330800000, "end_epoch": -3691940400000, "plantation": null }, "geometry": { "type": "Point", "coordinates": [ -78.8469874, 36.0867466 ] } },
{ "type": "Feature", "properties": { "id": null, "owner": "Richard Bennehan", "from": "John Marshall", "notes": null, "DB": "Q-28", "deedcounty": "Granville", "deed_date": "1796-11-15", "end_date": "1803-04-04", "start_epoch": -5463313200000, "end_epoch": -5262001200000, "plantation": null }, "geometry": { "type": "Point", "coordinates": [ -78.7965753, 36.1019402 ] } },
{ "type": "Feature", "properties": { "id": null, "owner": "Richard Bennehan", "from": "Caleb Brassfield", "notes": null, "DB": "O-630", "deedcounty": "Granville", "deed_date": "1789-10-15", "end_date": "1803-04-04", "start_epoch": -5686916400000, "end_epoch": -5262001200000, "plantation": null }, "geometry": { "type": "Point", "coordinates": [ -78.8006993, 36.0899721 ] } },
{ "type": "Feature", "properties": { "id": null, "owner": "Richard Bennehan", "from": "Joseph Speed", "notes": null, "DB": "4-1", "deedcounty": "Orange", "deed_date": "1788-03-31", "end_date": "1803-04-04", "start_epoch": -5735559600000, "end_epoch": -5262001200000, "plantation": null }, "geometry": { "type": "Point", "coordinates": [ -78.8059725, 36.1106727 ] } },
{ "type": "Feature", "properties": { "id": null, "owner": "Richard Bennehan", "from": "Tyree Harris", "notes": null, "DB": "00133_2103_0006", "deedcounty": null, "deed_date": "1776-05-24", "end_date": "1803-04-04", "start_epoch": -6109585200000, "end_epoch": -5262001200000, "plantation": "Brick House" }, "geometry": { "type": "Point", "coordinates": [ -78.807836, 36.0999282 ] } },
{ "type": "Feature", "properties": { "id": null, "owner": "Duncan Cameron", "from": "John Alston", "notes": null, "DB": "14-335", "deedcounty": "Orange", "deed_date": "1814-03-01", "end_date": "1853-01-03", "start_epoch": -4917783600000, "end_epoch": -3691940400000, "plantation": null }, "geometry": { "type": "Point", "coordinates": [ -78.8117279, 36.0842342 ] } },
{ "type": "Feature", "properties": { "id": null, "owner": "Duncan Cameron", "from": "John Arnold and Fielding Leathers", "notes": null, "DB": "15-381", "deedcounty": "Orange", "deed_date": "1816-03-10", "end_date": "1853-01-03", "start_epoch": -4853847600000, "end_epoch": -3691940400000, "plantation": null }, "geometry": { "type": "Point", "coordinates": [ -78.8193161, 36.0885915 ] } },
{ "type": "Feature", "properties": { "id": null, "owner": "Richard Bennehan", "from": "Charles Kennon", "notes": null, "DB": "12-291", "deedcounty": "Orange", "deed_date": "1806-07-30", "end_date": "1825-12-31", "start_epoch": -5157198000000, "end_epoch": -4544276400000, "plantation": null }, "geometry": { "type": "Point", "coordinates": [ -78.8250625, 36.0857451 ] } },
{ "type": "Feature", "properties": { "id": null, "owner": "Duncan Cameron", "from": "John Arnold heirs", "notes": "date estimated", "DB": "Piedmont Plantation", "deedcounty": null, "deed_date": "1824-03-01", "end_date": "1853-01-03", "start_epoch": -4602164400000, "end_epoch": -3691940400000, "plantation": null }, "geometry": { "type": "Point", "coordinates": [ -78.8184332, 36.0718291 ] } },
{ "type": "Feature", "properties": { "id": null, "owner": "Thomas D. Bennehan", "from": "William Leathers Jr. and Fielding Leathers", "notes": null, "DB": "17-117", "deedcounty": "Orange", "deed_date": "1816-04-25", "end_date": "1826-08-01", "start_epoch": -4849873200000, "end_epoch": -4525873200000, "plantation": null }, "geometry": { "type": "Point", "coordinates": [ -78.830238, 36.0801069 ] } },
{ "type": "Feature", "properties": { "id": null, "owner": "Margaret B. Cameron", "from": "Thomas D. Bennehan estate", "notes": null, "DB": "TDB will", "deedcounty": null, "deed_date": "1847-06-24", "end_date": "1886-03-12", "start_epoch": -3866468400000, "end_epoch": -2644686000000, "plantation": "Peaksville" }, "geometry": { "type": "Point", "coordinates": [ -78.7837227, 36.0617733 ] } },
{ "type": "Feature", "properties": { "id": null, "owner": "Thomas D. Bennehan", "from": "Joseph H. Bryan", "notes": null, "DB": "11-13", "deedcounty": "Wake", "deed_date": "1832-02-08", "end_date": "1847-06-24", "start_epoch": -4351604400000, "end_epoch": -3866468400000, "plantation": null }, "geometry": { "type": "Point", "coordinates": [ -78.7941472, 36.0748555 ] } },
{ "type": "Feature", "properties": { "id": null, "owner": "George W. Mordecai", "from": "Fendal Southerland", "notes": null, "DB": "22-229", "deedcounty": "Wake", "deed_date": "1857-11-10", "end_date": "1871-02-19", "start_epoch": -3538839600000, "end_epoch": -3119886000000, "plantation": null }, "geometry": { "type": "Point", "coordinates": [ -78.8049453, 36.0763874 ] } },
{ "type": "Feature", "properties": { "id": null, "owner": "Richard Bennehan", "from": "John and William Bell", "notes": null, "DB": "T-306", "deedcounty": "Granville", "deed_date": "1808-12-14", "end_date": "1825-12-31", "start_epoch": -5082202800000, "end_epoch": -4544276400000, "plantation": null }, "geometry": { "type": "Point", "coordinates": [ -78.7834055, 36.0871929 ] } },
{ "type": "Feature", "properties": { "id": null, "owner": "Richard Bennehan", "from": "Walter Alves", "notes": null, "DB": "14-109", "deedcounty": "Orange", "deed_date": "1812-09-09", "end_date": "1825-12-31", "start_epoch": -4964266800000, "end_epoch": -4544276400000, "plantation": null }, "geometry": { "type": "Point", "coordinates": [ -78.8431653, 36.1188873 ] } },
{ "type": "Feature", "properties": { "id": null, "owner": "Thomas D. Bennehan", "from": "Walter Alves", "notes": null, "DB": "14-152", "deedcounty": "Orange", "deed_date": "1812-11-06", "end_date": "1847-06-24", "start_epoch": -4959255600000, "end_epoch": -3866468400000, "plantation": null }, "geometry": { "type": "Point", "coordinates": [ -78.8536319, 36.1156012 ] } },
{ "type": "Feature", "properties": { "id": null, "owner": "Duncan Cameron", "from": "Walter Alves estate", "notes": null, "DB": "26-267", "deedcounty": "Orange", "deed_date": "1835-08-25", "end_date": "1853-01-03", "start_epoch": -4239802800000, "end_epoch": -3691940400000, "plantation": null }, "geometry": { "type": "Point", "coordinates": [ -78.8683167, 36.0701918 ] } },
{ "type": "Feature", "properties": { "id": null, "owner": "Duncan Cameron", "from": "William and Nathaniel Harris heirs", "notes": null, "DB": "20-134", "deedcounty": "Orange", "deed_date": "1822-10-17", "end_date": "1853-01-03", "start_epoch": -4645450800000, "end_epoch": -3691940400000, "plantation": null }, "geometry": { "type": "Point", "coordinates": [ -78.8363029, 36.0873199 ] } },
{ "type": "Feature", "properties": { "id": null, "owner": "Thomas D. Bennehan", "from": "Richard Bennehan estate", "notes": null, "DB": "RB will", "deedcounty": null, "deed_date": "1825-12-31", "end_date": "1834-08-01", "start_epoch": -4544276400000, "end_epoch": -4273412400000, "plantation": null }, "geometry": { "type": "Point", "coordinates": [ -78.8428816, 36.1382515 ] } },
{ "type": "Feature", "properties": { "id": null, "owner": "Duncan Cameron", "from": "Walter Alves estate", "notes": null, "DB": "19-278", "deedcounty": "Orange", "deed_date": "1821-01-25", "end_date": "1821-01-27", "start_epoch": -4699882800000, "end_epoch": -4699710000000, "plantation": null }, "geometry": { "type": "Point", "coordinates": [ -78.8747132, 36.0995399 ] } },
{ "type": "Feature", "properties": { "id": null, "owner": "Duncan Cameron", "from": "John Brown", "notes": null, "DB": "27-160", "deedcounty": "Orange", "deed_date": "1836-04-30", "end_date": "1853-01-03", "start_epoch": -4218289200000, "end_epoch": -3691940400000, "plantation": null }, "geometry": { "type": "Point", "coordinates": [ -78.8710768, 36.0765596 ] } },
{ "type": "Feature", "properties": { "id": null, "owner": "Duncan Cameron", "from": "Leonard Laws", "notes": null, "DB": "27-160", "deedcounty": "Orange", "deed_date": "1836-04-30", "end_date": "1840-05-16", "start_epoch": -4218289200000, "end_epoch": -4090676400000, "plantation": null }, "geometry": { "type": "Point", "coordinates": [ -78.8059649, 36.1196237 ] } },
{ "type": "Feature", "properties": { "id": null, "owner": "Thomas D. Bennehan", "from": "William Horton", "notes": "Strayhorn Tract", "DB": "22-11", "deedcounty": "Orange", "deed_date": "1823-10-24", "end_date": "1847-06-24", "start_epoch": -4613310000000, "end_epoch": -3866468400000, "plantation": null }, "geometry": { "type": "Point", "coordinates": [ -78.83395, 36.1329033 ] } },
{ "type": "Feature", "properties": { "id": null, "owner": "Richard Bennehan", "from": "John Martin", "notes": null, "DB": "5-648", "deedcounty": "Orange", "deed_date": "1796-11-02", "end_date": "1810-07-18", "start_epoch": -5464436400000, "end_epoch": -5032004400000, "plantation": null }, "geometry": { "type": "Point", "coordinates": [ -78.8465094, 36.1028525 ] } },
{ "type": "Feature", "properties": { "id": null, "owner": "Duncan Cameron", "from": "John Marshall and John Longmire", "notes": null, "DB": "R-347", "deedcounty": "Wake", "deed_date": "1803-07-22", "end_date": "1803-08-06", "start_epoch": -5252583600000, "end_epoch": -5251287600000, "plantation": null }, "geometry": { "type": "Point", "coordinates": [ -78.7244044, 36.0643084 ] } },
{ "type": "Feature", "properties": { "id": null, "owner": "Richard Bennehan", "from": "Jacob Bledsoe", "notes": null, "DB": "R-169", "deedcounty": "Wake", "deed_date": "1802-03-16", "end_date": "1806-03-10", "start_epoch": -5295178800000, "end_epoch": -5169466800000, "plantation": null }, "geometry": { "type": "Point", "coordinates": [ -78.7452441, 36.0480302 ] } },
{ "type": "Feature", "properties": { "id": null, "owner": "Richard Bennehan", "from": "Jacob Bledsoe", "notes": null, "DB": "R-168", "deedcounty": "Wake", "deed_date": "1802-03-16", "end_date": "1806-03-10", "start_epoch": -5295178800000, "end_epoch": -5169466800000, "plantation": null }, "geometry": { "type": "Point", "coordinates": [ -78.7419039, 36.0572291 ] } },
{ "type": "Feature", "properties": { "id": null, "owner": "Thomas D. Bennehan", "from": "Richard Boyd", "notes": null, "DB": "00133_2095_0019", "deedcounty": null, "deed_date": "1831-05-09", "end_date": "1847-06-24", "start_epoch": -4375364400000, "end_epoch": -3866468400000, "plantation": null }, "geometry": { "type": "Point", "coordinates": [ -78.7361835, 36.0689106 ] } },
{ "type": "Feature", "properties": { "id": null, "owner": "Thomas D. Bennehan", "from": "Blount Cooper", "notes": null, "DB": "7-168", "deedcounty": "Wake", "deed_date": "1826-09-26", "end_date": "1847-06-24", "start_epoch": -4521034800000, "end_epoch": -3866468400000, "plantation": null }, "geometry": { "type": "Point", "coordinates": [ -78.765054, 36.0630895 ] } },
{ "type": "Feature", "properties": { "id": null, "owner": "Thomas D. Bennehan", "from": "Nathaniel Robards", "notes": null, "DB": "4-432", "deedcounty": "Granville", "deed_date": "1830-09-28", "end_date": "1847-06-24", "start_epoch": -4394631600000, "end_epoch": -3866468400000, "plantation": null }, "geometry": { "type": "Point", "coordinates": [ -78.7741123, 36.075185 ] } },
{ "type": "Feature", "properties": { "id": null, "owner": "Thomas D. Bennehan", "from": "Hudson Yearby", "notes": null, "DB": "11-199", "deedcounty": null, "deed_date": "1831-01-01", "end_date": "1847-06-24", "start_epoch": -4386423600000, "end_epoch": -3866468400000, "plantation": null }, "geometry": { "type": "Point", "coordinates": [ -78.7369308, 36.0528551 ] } },
{ "type": "Feature", "properties": { "id": null, "owner": "Thomas D. Bennehan", "from": "John Singleton", "notes": null, "DB": "11-189", "deedcounty": "Wake", "deed_date": "1827-10-12", "end_date": "1847-06-24", "start_epoch": -4488116400000, "end_epoch": -3866468400000, "plantation": null }, "geometry": { "type": "Point", "coordinates": [ -78.7431787, 36.041851 ] } },
{ "type": "Feature", "properties": { "id": null, "owner": "Richard Bennehan", "from": "Isaac McCallum", "notes": null, "DB": "T-21", "deedcounty": null, "deed_date": "1804-12-20", "end_date": "1806-03-10", "start_epoch": -5207914800000, "end_epoch": -5169466800000, "plantation": null }, "geometry": { "type": "Point", "coordinates": [ -78.7656393, 36.0463798 ] } },
{ "type": "Feature", "properties": { "id": null, "owner": "Richard Bennehan", "from": "William F. Booker", "notes": null, "DB": "00133_xop0030b", "deedcounty": null, "deed_date": "1803-04-14", "end_date": "1806-03-10", "start_epoch": -5261137200000, "end_epoch": -5169466800000, "plantation": null }, "geometry": { "type": "Point", "coordinates": [ -78.758608, 36.0429438 ] } },
{ "type": "Feature", "properties": { "id": null, "owner": "Richard Bennehan", "from": "Richard Banks", "notes": null, "DB": "00133_xop0030b", "deedcounty": null, "deed_date": "1803-11-22", "end_date": "1806-03-10", "start_epoch": -5241956400000, "end_epoch": -5169466800000, "plantation": null }, "geometry": { "type": "Point", "coordinates": [ -78.7607762, 36.0325085 ] } },
{ "type": "Feature", "properties": { "id": null, "owner": "Mildred C. Cameron", "from": "Duncan Cameron estate", "notes": null, "DB": "DC will", "deedcounty": null, "deed_date": "1853-01-03", "end_date": "1881-12-28", "start_epoch": -3691940400000, "end_epoch": -2777310000000, "plantation": "Alston" }, "geometry": { "type": "Point", "coordinates": [ -78.8140238, 36.0855526 ] } },
{ "type": "Feature", "properties": { "id": null, "owner": "Thomas D. Bennehan and Duncan Cameron", "from": "Richard Bennehan", "notes": null, "DB": "T-201", "deedcounty": "Wake", "deed_date": "1806-03-10", "end_date": "1847-06-24", "start_epoch": -5169466800000, "end_epoch": -3866468400000, "plantation": null }, "geometry": { "type": "Point", "coordinates": [ -78.7611657, 36.040636 ] } },
{ "type": "Feature", "properties": { "id": null, "owner": "Thomas D. Bennehan", "from": "William A. Tharpe", "notes": null, "DB": "11-13", "deedcounty": "Wake", "deed_date": "1833-01-15", "end_date": "1847-06-24", "start_epoch": -4322055600000, "end_epoch": -3866468400000, "plantation": null }, "geometry": { "type": "Point", "coordinates": [ -78.7837227, 36.0617733 ] } },
{ "type": "Feature", "properties": { "id": null, "owner": "Paul C. Cameron", "from": "Margaret Cameron Mordecai estate", "notes": null, "DB": "MCM will", "deedcounty": null, "deed_date": "1886-03-12", "end_date": "1891-01-06", "start_epoch": -2644686000000, "end_epoch": -2492535600000, "plantation": null }, "geometry": { "type": "Point", "coordinates": [ -78.7721843, 36.0726107 ] } },
{ "type": "Feature", "properties": { "id": null, "owner": "Margaret B. Cameron", "from": "Thomas D. Bennehan estate", "notes": null, "DB": "TDB will", "deedcounty": null, "deed_date": "1847-06-24", "end_date": "1886-03-12", "start_epoch": -3866468400000, "end_epoch": -2644686000000, "plantation": null }, "geometry": { "type": "Point", "coordinates": [ -78.765054, 36.0630895 ] } },
{ "type": "Feature", "properties": { "id": null, "owner": "Margaret B. Cameron", "from": "Thomas D. Bennehan estate", "notes": null, "DB": "TDB will", "deedcounty": null, "deed_date": "1847-06-24", "end_date": "1886-03-12", "start_epoch": -3866468400000, "end_epoch": -2644686000000, "plantation": "Jones" }, "geometry": { "type": "Point", "coordinates": [ -78.7941472, 36.0748555 ] } },
{ "type": "Feature", "properties": { "id": null, "owner": "Thomas D. Bennehan and Duncan Cameron", "from": "Richard Bennehan", "notes": null, "DB": "T-201", "deedcounty": "Wake", "deed_date": "1806-03-10", "end_date": "1847-06-24", "start_epoch": -5169466800000, "end_epoch": -3866468400000, "plantation": null }, "geometry": { "type": "Point", "coordinates": [ -78.7342874, 36.0598364 ] } },
{ "type": "Feature", "properties": { "id": null, "owner": "Duncan Cameron", "from": "James Briggs", "notes": null, "DB": "19-290", "deedcounty": "Orange", "deed_date": "1821-10-02", "end_date": "1853-01-03", "start_epoch": -4678282800000, "end_epoch": -3691940400000, "plantation": null }, "geometry": { "type": "Point", "coordinates": [ -78.8264639, 36.0676626 ] } },
{ "type": "Feature", "properties": { "id": null, "owner": "Paul C. Cameron", "from": "Thomas D. Bennehan", "notes": null, "DB": "28-100", "deedcounty": "Orange", "deed_date": "1834-08-01", "end_date": "1870-01-20", "start_epoch": -4273412400000, "end_epoch": -3154014000000, "plantation": null }, "geometry": { "type": "Point", "coordinates": [ -78.8428816, 36.1382515 ] } },
{ "type": "Feature", "properties": { "id": null, "owner": "Thomas D. Bennehan", "from": "Richard Bennehan estate", "notes": null, "DB": "RB will", "deedcounty": null, "deed_date": "1825-12-31", "end_date": "1847-06-24", "start_epoch": -4544276400000, "end_epoch": -3866468400000, "plantation": null }, "geometry": { "type": "Point", "coordinates": [ -78.8413958, 36.1228395 ] } },
{ "type": "Feature", "properties": { "id": null, "owner": "Thomas D. Bennehan", "from": "Duncan Cameron", "notes": null, "DB": "23-211", "deedcounty": "Orange", "deed_date": "1821-01-27", "end_date": "1847-06-24", "start_epoch": -4699710000000, "end_epoch": -3866468400000, "plantation": null }, "geometry": { "type": "Point", "coordinates": [ -78.8674288, 36.1219823 ] } },
{ "type": "Feature", "properties": { "id": null, "owner": "Duncan Cameron", "from": "Walter Alves estate", "notes": null, "DB": "19-278", "deedcounty": "Orange", "deed_date": "1821-01-27", "end_date": "1853-01-03", "start_epoch": -4699710000000, "end_epoch": -3691940400000, "plantation": "Snow Hill" }, "geometry": { "type": "Point", "coordinates": [ -78.8758672, 36.0959837 ] } },
{ "type": "Feature", "properties": { "id": null, "owner": "Thomas D. Bennehan and Duncan Cameron", "from": "Joseph Gales", "notes": null, "DB": "U-20", "deedcounty": "Wake", "deed_date": "1807-03-17", "end_date": "1847-04-24", "start_epoch": -5137326000000, "end_epoch": -3871738800000, "plantation": null }, "geometry": { "type": "Point", "coordinates": [ -78.7692538, 36.0342348 ] } },
{ "type": "Feature", "properties": { "id": null, "owner": "Richard Bennehan", "from": "Bryan Stonum", "notes": null, "DB": "Q-27", "deedcounty": "Granville", "deed_date": "1797-01-16", "end_date": "1803-04-04", "start_epoch": -5457956400000, "end_epoch": -5262001200000, "plantation": null }, "geometry": { "type": "Point", "coordinates": [ -78.7927169, 36.1120315 ] } },
{ "type": "Feature", "properties": { "id": null, "owner": "Duncan Cameron", "from": "Richard Bennehan", "notes": null, "DB": "14-35", "deedcounty": "Orange", "deed_date": "1803-04-04", "end_date": "1840-05-16", "start_epoch": -5262001200000, "end_epoch": -4090676400000, "plantation": "Brick House" }, "geometry": { "type": "Point", "coordinates": [ -78.8037864, 36.1032786 ] } },
{ "type": "Feature", "properties": { "id": null, "owner": "Duncan Cameron", "from": "John Marshall", "notes": null, "DB": "R-37", "deedcounty": "Granville", "deed_date": "1802-06-03", "end_date": "1840-05-16", "start_epoch": -5288353200000, "end_epoch": -4090676400000, "plantation": null }, "geometry": { "type": "Point", "coordinates": [ -78.7883983, 36.1043567 ] } },
{ "type": "Feature", "properties": { "id": null, "owner": "Duncan Cameron", "from": "Richard Bennehan and Leonard Laws", "notes": null, "DB": "14-35 and 27-160", "deedcounty": "Orange", "deed_date": "1840-05-16", "end_date": "1853-01-03", "start_epoch": -4090676400000, "end_epoch": -3691940400000, "plantation": "Brick House" }, "geometry": { "type": "Point", "coordinates": [ -78.8047944, 36.1045827 ] } },
{ "type": "Feature", "properties": { "id": null, "owner": "Duncan Cameron", "from": "Margaret Cain Few heirs", "notes": null, "DB": "24-313", "deedcounty": "Orange", "deed_date": "1831-02-01", "end_date": "1853-01-03", "start_epoch": -4383745200000, "end_epoch": -3691940400000, "plantation": null }, "geometry": { "type": "Point", "coordinates": [ -78.8781064, 36.093385 ] } },
{ "type": "Feature", "properties": { "id": null, "owner": "Duncan Cameron", "from": "James Cain heirs", "notes": null, "DB": "26-323", "deedcounty": "Orange", "deed_date": "1834-11-07", "end_date": "1853-01-03", "start_epoch": -4264945200000, "end_epoch": -3691940400000, "plantation": null }, "geometry": { "type": "Point", "coordinates": [ -78.8732413, 36.0910091 ] } },
{ "type": "Feature", "properties": { "id": null, "owner": "Mildred C. Cameron", "from": "Duncan Cameron estate", "notes": null, "DB": "DC will", "deedcounty": null, "deed_date": "1853-01-03", "end_date": "1881-12-28", "start_epoch": -3691940400000, "end_epoch": -2777310000000, "plantation": "Briggs" }, "geometry": { "type": "Point", "coordinates": [ -78.8255282, 36.0692202 ] } },
{ "type": "Feature", "properties": { "id": null, "owner": "Duncan Cameron", "from": "James Cain heirs", "notes": null, "DB": "26-322", "deedcounty": "Orange", "deed_date": "1834-11-07", "end_date": "1853-01-03", "start_epoch": -4264945200000, "end_epoch": -3691940400000, "plantation": null }, "geometry": { "type": "Point", "coordinates": [ -78.866903, 36.0857925 ] } },
{ "type": "Feature", "properties": { "id": null, "owner": "Duncan Cameron", "from": "William Cain heirs", "notes": null, "DB": "25-10", "deedcounty": "Orange", "deed_date": "1831-11-26", "end_date": "1853-01-03", "start_epoch": -4357998000000, "end_epoch": -3691940400000, "plantation": null }, "geometry": { "type": "Point", "coordinates": [ -78.8541366, 36.0909557 ] } },
{ "type": "Feature", "properties": { "id": null, "owner": "Paul C. Cameron", "from": "Thomas D. Bennehan estate", "notes": null, "DB": "TDB will", "deedcounty": null, "deed_date": "1847-06-24", "end_date": "1870-01-20", "start_epoch": -3866468400000, "end_epoch": -3154014000000, "plantation": null }, "geometry": { "type": "Point", "coordinates": [ -78.842701, 36.1213722 ] } },
{ "type": "Feature", "properties": { "id": null, "owner": "Thomas A. Cameron", "from": "Duncan Cameron estate", "notes": null, "DB": "DC will", "deedcounty": null, "deed_date": "1853-01-03", "end_date": "1870-01-20", "start_epoch": -3691940400000, "end_epoch": -3154014000000, "plantation": "Snow Hill" }, "geometry": { "type": "Point", "coordinates": [ -78.8751611, 36.0947776 ] } },
{ "type": "Feature", "properties": { "id": null, "owner": "Duncan Cameron", "from": "Richmond Harris heirs", "notes": null, "DB": "16-68", "deedcounty": "Orange", "deed_date": "1817-09-02", "end_date": "1853-01-03", "start_epoch": -4807105200000, "end_epoch": -3691940400000, "plantation": null }, "geometry": { "type": "Point", "coordinates": [ -78.8270714, 36.0969625 ] } },
{ "type": "Feature", "properties": { "id": null, "owner": "Duncan Cameron heirs", "from": "Duncan Cameron estate", "notes": null, "DB": "DC will", "deedcounty": null, "deed_date": "1870-01-20", "end_date": "1886-03-12", "start_epoch": -3154014000000, "end_epoch": -2644686000000, "plantation": "Snow Hill" }, "geometry": { "type": "Point", "coordinates": [ -78.8751611, 36.0947776 ] } },
{ "type": "Feature", "properties": { "id": null, "owner": "Paul C. Cameron", "from": "Duncan Cameron estate", "notes": null, "DB": "DC will", "deedcounty": null, "deed_date": "1886-03-12", "end_date": "1891-01-06", "start_epoch": -2644686000000, "end_epoch": -2492535600000, "plantation": "Snow Hill" }, "geometry": { "type": "Point", "coordinates": [ -78.8751611, 36.0947776 ] } },
{ "type": "Feature", "properties": { "id": null, "owner": "Margaret B. Mordecai", "from": "Duncan Cameron estate", "notes": null, "DB": "DC will", "deedcounty": null, "deed_date": "1881-12-28", "end_date": "1886-03-12", "start_epoch": -2777310000000, "end_epoch": -2644686000000, "plantation": "Brick House" }, "geometry": { "type": "Point", "coordinates": [ -78.8047944, 36.1045827 ] } },
{ "type": "Feature", "properties": { "id": null, "owner": "Paul C. Cameron", "from": "Duncan Cameron estate", "notes": null, "DB": "DC will", "deedcounty": null, "deed_date": "1886-03-12", "end_date": "1891-01-06", "start_epoch": -2644686000000, "end_epoch": -2492535600000, "plantation": "Brick House" }, "geometry": { "type": "Point", "coordinates": [ -78.8047944, 36.1045827 ] } },
{ "type": "Feature", "properties": { "id": null, "owner": "Paul C. Cameron", "from": "Duncan Cameron estate", "notes": null, "DB": "DC will", "deedcounty": null, "deed_date": "1853-01-03", "end_date": "1870-01-20", "start_epoch": -3691940400000, "end_epoch": -3154014000000, "plantation": "Fairntosh" }, "geometry": { "type": "Point", "coordinates": [ -78.8391936, 36.0928529 ] } },
{ "type": "Feature", "properties": { "id": null, "owner": "Duncan Cameron", "from": "Richard Bennehan", "notes": null, "DB": "13-324", "deedcounty": "Orange", "deed_date": "1810-07-18", "end_date": "1853-01-03", "start_epoch": -5032004400000, "end_epoch": -3691940400000, "plantation": "Fairntosh" }, "geometry": { "type": "Point", "coordinates": [ -78.8370925, 36.1033031 ] } },
{ "type": "Feature", "properties": { "id": null, "owner": "Richard Bennehan", "from": "John Martin", "notes": null, "DB": "5-648", "deedcounty": "Orange", "deed_date": "1810-07-18", "end_date": "1825-12-31", "start_epoch": -5032004400000, "end_epoch": -4544276400000, "plantation": null }, "geometry": { "type": "Point", "coordinates": [ -78.8488496, 36.1021609 ] } },
{ "type": "Feature", "properties": { "id": null, "owner": "Richard Bennehan", "from": "James Monroe", "notes": null, "DB": "3-166", "deedcounty": "Orange", "deed_date": "1810-07-18", "end_date": "1825-12-31", "start_epoch": -5032004400000, "end_epoch": -4544276400000, "plantation": null }, "geometry": { "type": "Point", "coordinates": [ -78.8397142, 36.1017835 ] } },
{ "type": "Feature", "properties": { "id": null, "owner": "Thomas D. Bennehan", "from": "Richard Bennehan estate", "notes": null, "DB": "RB will", "deedcounty": null, "deed_date": "1825-12-31", "end_date": "1831-01-01", "start_epoch": -4544276400000, "end_epoch": -4386423600000, "plantation": null }, "geometry": { "type": "Point", "coordinates": [ -78.7834055, 36.0871929 ] } },
{ "type": "Feature", "properties": { "id": null, "owner": "Paul C. Cameron", "from": "Thomas D. Bennehan", "notes": null, "DB": "00133_2095_0040", "deedcounty": null, "deed_date": "1831-01-01", "end_date": "1891-01-06", "start_epoch": -4386423600000, "end_epoch": -2492535600000, "plantation": null }, "geometry": { "type": "Point", "coordinates": [ -78.7834055, 36.0871929 ] } },
{ "type": "Feature", "properties": { "id": null, "owner": "Duncan Cameron", "from": "Thomas D. Bennehan", "notes": null, "DB": "00133_2094_0025", "deedcounty": null, "deed_date": "1826-08-01", "end_date": "1837-07-10", "start_epoch": -4525873200000, "end_epoch": -4180618800000, "plantation": "Reavis" }, "geometry": { "type": "Point", "coordinates": [ -78.8337382, 36.0706252 ] } },
{ "type": "Feature", "properties": { "id": null, "owner": "Thomas D. Bennehan", "from": "Richard Bennehan estate", "notes": null, "DB": "RB will", "deedcounty": null, "deed_date": "1825-12-31", "end_date": "1826-08-01", "start_epoch": -4544276400000, "end_epoch": -4525873200000, "plantation": null }, "geometry": { "type": "Point", "coordinates": [ -78.8250625, 36.0857451 ] } },
{ "type": "Feature", "properties": { "id": null, "owner": "Thomas D. Bennehan", "from": "Thomas Reavis", "notes": null, "DB": "00133_2094_0025", "deedcounty": null, "deed_date": "1824-03-22", "end_date": "1826-08-01", "start_epoch": -4600350000000, "end_epoch": -4525873200000, "plantation": "Reavis" }, "geometry": { "type": "Point", "coordinates": [ -78.8337385, 36.0706252 ] } },
{ "type": "Feature", "properties": { "id": null, "owner": "Mildred C. Cameron", "from": "Duncan Cameron estate", "notes": null, "DB": "DB will", "deedcounty": null, "deed_date": "1853-01-03", "end_date": "1881-12-28", "start_epoch": -3691940400000, "end_epoch": -2777310000000, "plantation": "Leathers" }, "geometry": { "type": "Point", "coordinates": [ -78.8292749, 36.0811562 ] } },
{ "type": "Feature", "properties": { "id": null, "owner": "Thomas D. Bennehan", "from": "Richard Boyd", "notes": null, "DB": "00133_2095_0019", "deedcounty": null, "deed_date": "1831-05-09", "end_date": "1847-06-24", "start_epoch": -4375364400000, "end_epoch": -3866468400000, "plantation": null }, "geometry": { "type": "Point", "coordinates": [ -78.7484376, 36.0661295 ] } },
{ "type": "Feature", "properties": { "id": null, "owner": "Thomas D. Bennehan", "from": "Richard Boyd", "notes": null, "DB": "00133_2095_0019", "deedcounty": null, "deed_date": "1831-05-09", "end_date": "1847-06-24", "start_epoch": -4375364400000, "end_epoch": -3866468400000, "plantation": null }, "geometry": { "type": "Point", "coordinates": [ -78.7535043, 36.0533737 ] } },
{ "type": "Feature", "properties": { "id": null, "owner": "Thomas D. Bennehan and Duncan Cameron", "from": "James Daniels", "notes": null, "DB": null, "deedcounty": null, "deed_date": "1812-11-13", "end_date": "1847-06-24", "start_epoch": -4958650800000, "end_epoch": -3866468400000, "plantation": null }, "geometry": { "type": "Point", "coordinates": [ -78.7587865, 36.0571261 ] } },
{ "type": "Feature", "properties": { "id": null, "owner": "Richard Bennehan", "from": "Jacob Bledsoe Sr", "notes": null, "DB": "00133_2090_0031", "deedcounty": null, "deed_date": "1803-09-10", "end_date": "1806-03-10", "start_epoch": -5248263600000, "end_epoch": -5169466800000, "plantation": null }, "geometry": { "type": "Point", "coordinates": [ -78.7538491, 36.0545849 ] } },
{ "type": "Feature", "properties": { "id": null, "owner": "Richard Bennehan", "from": "John and William Bell", "notes": null, "DB": "T-265", "deedcounty": "Wake", "deed_date": "1805-05-24", "end_date": "1806-03-10", "start_epoch": -5194522800000, "end_epoch": -5169466800000, "plantation": null }, "geometry": { "type": "Point", "coordinates": [ -78.7244044, 36.0643084 ] } },
{ "type": "Feature", "properties": { "id": null, "owner": "Paul C. Cameron", "from": "Duncan Cameron estate", "notes": null, "DB": "DC will", "deedcounty": null, "deed_date": "1853-01-03", "end_date": "1891-01-06", "start_epoch": -3691940400000, "end_epoch": -2492535600000, "plantation": "Fish Dam" }, "geometry": { "type": "Point", "coordinates": [ -78.7403506, 36.0575156 ] } },
{ "type": "Feature", "properties": { "id": null, "owner": "Margaret B. Cameron", "from": "Thomas D. Bennehan estate", "notes": null, "DB": "TDB will", "deedcounty": null, "deed_date": "1847-06-24", "end_date": "1849-04-13", "start_epoch": -3866468400000, "end_epoch": -3809530800000, "plantation": "New House" }, "geometry": { "type": "Point", "coordinates": [ -78.763565, 36.0373239 ] } },
{ "type": "Feature", "properties": { "id": null, "owner": "Duncan Cameron", "from": "Thomas D. Bennehan estate", "notes": null, "DB": "TDB will", "deedcounty": null, "deed_date": "1847-06-24", "end_date": "1853-01-03", "start_epoch": -3866468400000, "end_epoch": -3691940400000, "plantation": "Fish Dam" }, "geometry": { "type": "Point", "coordinates": [ -78.7403506, 36.0575156 ] } },
{ "type": "Feature", "properties": { "id": null, "owner": "Margaret B. Mordecai", "from": "George Mordecai estate", "notes": null, "DB": "GM will", "deedcounty": null, "deed_date": "1871-02-19", "end_date": "1886-03-12", "start_epoch": -3119886000000, "end_epoch": -2644686000000, "plantation": "Geer" }, "geometry": { "type": "Point", "coordinates": [ -78.8049453, 36.0763874 ] } },
{ "type": "Feature", "properties": { "id": null, "owner": "Mildred C. Cameron", "from": "Duncan Cameron estate", "notes": null, "DB": "DC will", "deedcounty": null, "deed_date": "1853-01-03", "end_date": "1881-12-28", "start_epoch": -3691940400000, "end_epoch": -2777310000000, "plantation": "Brick House" }, "geometry": { "type": "Point", "coordinates": [ -78.8047944, 36.1045827 ] } },
{ "type": "Feature", "properties": { "id": null, "owner": "Mildred C. Cameron", "from": "Duncan Cameron estate", "notes": null, "DB": "DC will", "deedcounty": null, "deed_date": "1853-01-03", "end_date": "1881-12-28", "start_epoch": -3691940400000, "end_epoch": -2777310000000, "plantation": "Arnold" }, "geometry": { "type": "Point", "coordinates": [ -78.8169387, 36.0708505 ] } },
{ "type": "Feature", "properties": { "id": null, "owner": "Mildred C. Cameron", "from": "Duncan Cameron estate", "notes": null, "DB": "DC will", "deedcounty": null, "deed_date": "1853-01-03", "end_date": "1881-12-28", "start_epoch": -3691940400000, "end_epoch": -2777310000000, "plantation": "Reavis" }, "geometry": { "type": "Point", "coordinates": [ -78.8335427, 36.0713156 ] } },
{ "type": "Feature", "properties": { "id": null, "owner": "Duncan Cameron", "from": "Thomas D. Bennehan", "notes": null, "DB": "00133_2094_0025", "deedcounty": null, "deed_date": "1837-07-10", "end_date": "1853-01-03", "start_epoch": -4180618800000, "end_epoch": -3691940400000, "plantation": "Reavis" }, "geometry": { "type": "Point", "coordinates": [ -78.8335418, 36.0713168 ] } },
{ "type": "Feature", "properties": { "id": null, "owner": "Duncan Cameron", "from": "Thomas D. Bennehan", "notes": null, "DB": "00133_2095_0025", "deedcounty": null, "deed_date": "1826-08-01", "end_date": "1853-01-03", "start_epoch": -4525873200000, "end_epoch": -3691940400000, "plantation": "Leathers" }, "geometry": { "type": "Point", "coordinates": [ -78.8292749, 36.0811562 ] } },
{ "type": "Feature", "properties": { "id": null, "owner": "Paul C. Cameron", "from": "Duncan Cameron estate", "notes": null, "DB": "DC will", "deedcounty": null, "deed_date": "1881-12-28", "end_date": "1891-01-06", "start_epoch": -2777310000000, "end_epoch": -2492535600000, "plantation": "Alston" }, "geometry": { "type": "Point", "coordinates": [ -78.8140238, 36.0855526 ] } },
{ "type": "Feature", "properties": { "id": null, "owner": "Paul C. Cameron", "from": "Duncan Cameron estate", "notes": null, "DB": "DC will", "deedcounty": null, "deed_date": "1881-12-28", "end_date": "1891-01-06", "start_epoch": -2777310000000, "end_epoch": -2492535600000, "plantation": "Briggs" }, "geometry": { "type": "Point", "coordinates": [ -78.8255282, 36.0692202 ] } },
{ "type": "Feature", "properties": { "id": null, "owner": "Paul C. Cameron", "from": "Duncan Cameron estate", "notes": null, "DB": "DB will", "deedcounty": null, "deed_date": "1881-12-28", "end_date": "1891-01-06", "start_epoch": -2777310000000, "end_epoch": -2492535600000, "plantation": "Leathers" }, "geometry": { "type": "Point", "coordinates": [ -78.8292749, 36.0811562 ] } },
{ "type": "Feature", "properties": { "id": null, "owner": "Paul C. Cameron", "from": "Duncan Cameron estate", "notes": null, "DB": "DC will", "deedcounty": null, "deed_date": "1881-12-28", "end_date": "1891-01-06", "start_epoch": -2777310000000, "end_epoch": -2492535600000, "plantation": "Arnold" }, "geometry": { "type": "Point", "coordinates": [ -78.8169387, 36.0708505 ] } },
{ "type": "Feature", "properties": { "id": null, "owner": "Paul C. Cameron", "from": "Duncan Cameron estate", "notes": null, "DB": "DB will", "deedcounty": null, "deed_date": "1881-12-28", "end_date": "1891-01-06", "start_epoch": -2777310000000, "end_epoch": -2492535600000, "plantation": "Reavis" }, "geometry": { "type": "Point", "coordinates": [ -78.8335427, 36.0713156 ] } },
{ "type": "Feature", "properties": { "id": null, "owner": "Margaret B. Cameron", "from": "Thomas D. Bennehan estate", "notes": null, "DB": "TDB will", "deedcounty": null, "deed_date": "1849-04-13", "end_date": "1886-03-12", "start_epoch": -3809530800000, "end_epoch": -2644686000000, "plantation": "New House" }, "geometry": { "type": "Point", "coordinates": [ -78.763272, 36.0366322 ] } },
{ "type": "Feature", "properties": { "id": null, "owner": "Paul C. Cameron", "from": "Bennehan and Cameron estates", "notes": "after sales of northern tract to A. K. Umstead", "DB": "TDB and DC wills", "deedcounty": null, "deed_date": "1877-09-29", "end_date": "1891-01-06", "start_epoch": -2911316400000, "end_epoch": -2492535600000, "plantation": null }, "geometry": { "type": "Point", "coordinates": [ -78.8415156, 36.1125066 ] } },
{ "type": "Feature", "properties": { "id": null, "owner": "Paul C. Cameron", "from": "Bennehan and Cameron estates", "notes": null, "DB": "TDB and DC wills", "deedcounty": null, "deed_date": "1870-01-20", "end_date": "1877-09-29", "start_epoch": -3154014000000, "end_epoch": -2911316400000, "plantation": null }, "geometry": { "type": "Point", "coordinates": [ -78.8416073, 36.1130653 ] } },
{ "type": "Feature", "properties": { "id": null, "owner": "Paul C. Graham", "from": "Paul C. Cameron estate", "notes": null, "DB": "PCC will", "deedcounty": null, "deed_date": "1891-01-06", "end_date": "1964-01-02", "start_epoch": -2492535600000, "end_epoch": -189284400000, "plantation": "Brick House" }, "geometry": { "type": "Point", "coordinates": [ -78.8047944, 36.1045827 ] } },
{ "type": "Feature", "properties": { "id": null, "owner": "Heirs of Annie C. Collins", "from": "Paul C. Cameron estate", "notes": null, "DB": "PCC will", "deedcounty": null, "deed_date": "1891-01-06", "end_date": "1922-02-25", "start_epoch": -2492535600000, "end_epoch": -1509994800000, "plantation": "Snow Hill" }, "geometry": { "type": "Point", "coordinates": [ -78.8751611, 36.0947776 ] } },
{ "type": "Feature", "properties": { "id": null, "owner": "George M. Graham", "from": "Paul C. Cameron estate", "notes": "after sale of western tract to J. D. Hamlin", "DB": "PCC will", "deedcounty": null, "deed_date": "1892-07-12", "end_date": "1895-03-06", "start_epoch": -2444756400000, "end_epoch": -2361207600000, "plantation": "Reavis, Briggs, Leathers, and Alston" }, "geometry": { "type": "Point", "coordinates": [ -78.8223258, 36.0791041 ] } },
{ "type": "Feature", "properties": { "id": null, "owner": "Bennehan Cameron", "from": "Paul C. Cameron estate", "notes": null, "DB": "PCC will", "deedcounty": null, "deed_date": "1891-01-06", "end_date": "1925-06-01", "start_epoch": -2492535600000, "end_epoch": -1407006000000, "plantation": "Stagville and Fairntosh" }, "geometry": { "type": "Point", "coordinates": [ -78.8415056, 36.1124947 ] } },
{ "type": "Feature", "properties": { "id": null, "owner": "George M. Graham", "from": "Paul C. Cameron estate", "notes": null, "DB": "PCC will", "deedcounty": null, "deed_date": "1891-01-06", "end_date": "1892-07-12", "start_epoch": -2492535600000, "end_epoch": -2444756400000, "plantation": "Reavis, Briggs, Leathers, and Alston" }, "geometry": { "type": "Point", "coordinates": [ -78.8226271, 36.0788685 ] } },
{ "type": "Feature", "properties": { "id": null, "owner": "Margaret B. Cameron", "from": "Thomas D. Bennehan estate", "notes": null, "DB": "TDB will", "deedcounty": null, "deed_date": "1847-06-24", "end_date": "1886-03-12", "start_epoch": -3866468400000, "end_epoch": -2644686000000, "plantation": null }, "geometry": { "type": "Point", "coordinates": [ -78.7741123, 36.075185 ] } },
{ "type": "Feature", "properties": { "id": null, "owner": "George K. Collins", "from": "Paul C. Cameron estate", "notes": null, "DB": "PCC will", "deedcounty": null, "deed_date": "1891-01-06", "end_date": "1926-04-17", "start_epoch": -2492535600000, "end_epoch": -1379358000000, "plantation": null }, "geometry": { "type": "Point", "coordinates": [ -78.7751132, 36.0764172 ] } },
{ "type": "Feature", "properties": { "id": null, "owner": "Paul C. Cameron", "from": "Margaret Cameron Mordecai estate", "notes": null, "DB": "MCM will", "deedcounty": null, "deed_date": "1886-03-12", "end_date": "1935-07-17", "start_epoch": -2644686000000, "end_epoch": -1087498800000, "plantation": "Peaksville" }, "geometry": { "type": "Point", "coordinates": [ -78.7837227, 36.0617733 ] } },
{ "type": "Feature", "properties": { "id": null, "owner": "R. B. Peebles", "from": "Paul C. Cameron estate", "notes": null, "DB": "PCC will", "deedcounty": null, "deed_date": "1891-01-06", "end_date": "1923-12-07", "start_epoch": -2492535600000, "end_epoch": -1453834800000, "plantation": "Arnold, Geer, and Jones" }, "geometry": { "type": "Point", "coordinates": [ -78.8013915, 36.074838 ] } },
{ "type": "Feature", "properties": { "id": null, "owner": "Paul C. Cameron", "from": "Margaret Cameron Mordecai estate", "notes": null, "DB": "MCM will", "deedcounty": null, "deed_date": "1886-03-12", "end_date": "1891-01-03", "start_epoch": -2644686000000, "end_epoch": -2492794800000, "plantation": "Jones" }, "geometry": { "type": "Point", "coordinates": [ -78.7941472, 36.0748555 ] } },
{ "type": "Feature", "properties": { "id": null, "owner": "Paul C. Cameron estate", "from": "Margaret Cameron Mordecai estate", "notes": null, "DB": "MCM will", "deedcounty": null, "deed_date": "1935-07-17", "end_date": "1941-02-24", "start_epoch": -1087498800000, "end_epoch": -910465200000, "plantation": "Peaksville" }, "geometry": { "type": "Point", "coordinates": [ -78.7800592, 36.0604588 ] } },
{ "type": "Feature", "properties": { "id": null, "owner": "George M. Graham", "from": "Paul C. Cameron estate", "notes": "after sale of tract south of Fish Dam Rd to J. E. Rogers", "DB": "PCC will", "deedcounty": null, "deed_date": "1895-03-06", "end_date": "1909-04-22", "start_epoch": -2361207600000, "end_epoch": -1915383600000, "plantation": "Reavis, Briggs, Leathers, and Alston" }, "geometry": { "type": "Point", "coordinates": [ -78.8217925, 36.0804794 ] } },
{ "type": "Feature", "properties": { "id": null, "owner": "Thomas D. Bennehan", "from": "W. A. Thorpe", "notes": null, "DB": "9-315", "deedcounty": "Wake", "deed_date": "1829-04-29", "end_date": "1847-06-24", "start_epoch": -4439300400000, "end_epoch": -3866468400000, "plantation": null }, "geometry": { "type": "Point", "coordinates": [ -78.77065, 36.0252803 ] } },
{ "type": "Feature", "properties": { "id": null, "owner": "Paul C. Cameron", "from": "Margaret Cameron Mordecai estate", "notes": null, "DB": "MCM will", "deedcounty": null, "deed_date": "1886-03-12", "end_date": "1898-10-22", "start_epoch": -2644686000000, "end_epoch": -2246641200000, "plantation": "New House" }, "geometry": { "type": "Point", "coordinates": [ -78.7622286, 36.036039 ] } },
{ "type": "Feature", "properties": { "id": null, "owner": "Paul C. Cameron", "from": "Margaret Cameron Mordecai estate", "notes": "after sales of southwest portion to A. G. Ferrell", "DB": "MCM will", "deedcounty": null, "deed_date": "1898-10-22", "end_date": "1936-07-21", "start_epoch": -2246641200000, "end_epoch": -1055530800000, "plantation": "New House" }, "geometry": { "type": "Point", "coordinates": [ -78.7584015, 36.0415738 ] } },
{ "type": "Feature", "properties": { "id": null, "owner": "Paul C. Cameron estate", "from": "Margaret Cameron Mordecai estate", "notes": "after sale of northwest tract to Charlie & Angie Todd", "DB": "MCM will", "deedcounty": null, "deed_date": "1936-07-21", "end_date": "1940-12-20", "start_epoch": -1055530800000, "end_epoch": -916167600000, "plantation": "New House" }, "geometry": { "type": "Point", "coordinates": [ -78.7562809, 36.0388136 ] } },
{ "type": "Feature", "properties": { "id": null, "owner": "Paul C. Cameron", "from": "Margaret Cameron Mordecai estate", "notes": null, "DB": "MCM", "deedcounty": null, "deed_date": "1886-03-12", "end_date": "1891-01-06", "start_epoch": -2644686000000, "end_epoch": -2492535600000, "plantation": "Geer" }, "geometry": { "type": "Point", "coordinates": [ -78.8049453, 36.0763874 ] } }
]
}
