{
"type": "FeatureCollection",
"name": "plantations",
"features": [
{ "type": "Feature", "properties": { "id": null, "name": "Horton Grove", "start_date": "1823-10-24", "end_date": "1960-01-01", "start_epoch": -4613310000000, "end_epoch": -315601200000 }, "geometry": { "type": "Point", "coordinates": [ -78.8400092, 36.1308277 ] } },
{ "type": "Feature", "properties": { "id": null, "name": "Stagville", "start_date": "1787-02-27", "end_date": "1960-01-01", "start_epoch": -5769946800000, "end_epoch": -315601200000 }, "geometry": { "type": "Point", "coordinates": [ -78.8366317, 36.1199047 ] } },
{ "type": "Feature", "properties": { "id": null, "name": "Fairntosh", "start_date": "1810-07-18", "end_date": "1960-01-01", "start_epoch": -5032004400000, "end_epoch": -315601200000 }, "geometry": { "type": "Point", "coordinates": [ -78.8312188, 36.104954 ] } },
{ "type": "Feature", "properties": { "id": null, "name": "Brick House", "start_date": "1776-05-24", "end_date": "1840-05-16", "start_epoch": -6109585200000, "end_epoch": -4090676400000 }, "geometry": { "type": "Point", "coordinates": [ -78.8106803, 36.0972303 ] } },
{ "type": "Feature", "properties": { "id": null, "name": "Brick House", "start_date": "1840-05-16", "end_date": "1960-01-01", "start_epoch": -4090676400000, "end_epoch": -315601200000 }, "geometry": { "type": "Point", "coordinates": [ -78.8047944, 36.1045827 ] } },
{ "type": "Feature", "properties": { "id": null, "name": "Snow HIll", "start_date": "1821-01-25", "end_date": "1853-01-03", "start_epoch": -4699882800000, "end_epoch": -3691940400000 }, "geometry": { "type": "Point", "coordinates": [ -78.8653285, 36.107536 ] } },
{ "type": "Feature", "properties": { "id": null, "name": "Snow Hill", "start_date": "1853-01-03", "end_date": "1960-01-01", "start_epoch": -3691940400000, "end_epoch": -315601200000 }, "geometry": { "type": "Point", "coordinates": [ -78.8751611, 36.0947776 ] } },
{ "type": "Feature", "properties": { "id": null, "name": "Fish Dam", "start_date": "1802-06-20", "end_date": "1806-04-28", "start_epoch": -5286884400000, "end_epoch": -5165233200000 }, "geometry": { "type": "Point", "coordinates": [ -78.7527556, 36.0530612 ] } },
{ "type": "Feature", "properties": { "id": null, "name": "Fish Dam", "start_date": "1806-04-28", "end_date": "1891-01-06", "start_epoch": -5165233200000, "end_epoch": -2492535600000 }, "geometry": { "type": "Point", "coordinates": [ -78.7403506, 36.0575156 ] } },
{ "type": "Feature", "properties": { "id": null, "name": "New House", "start_date": "1806-04-28", "end_date": "1898-10-22", "start_epoch": -5165233200000, "end_epoch": -2246641200000 }, "geometry": { "type": "Point", "coordinates": [ -78.7620092, 36.0399684 ] } },
{ "type": "Feature", "properties": { "id": null, "name": "Peaksville", "start_date": "1833-01-15", "end_date": "1935-07-17", "start_epoch": -4322055600000, "end_epoch": -1087498800000 }, "geometry": { "type": "Point", "coordinates": [ -78.7837227, 36.0617733 ] } },
{ "type": "Feature", "properties": { "id": null, "name": "Jones Quarter", "start_date": "1833-01-15", "end_date": "1891-01-06", "start_epoch": -4322055600000, "end_epoch": -2492535600000 }, "geometry": { "type": "Point", "coordinates": [ -78.7941472, 36.0748555 ] } },
{ "type": "Feature", "properties": { "id": null, "name": "Alston", "start_date": "1853-01-03", "end_date": "1891-01-06", "start_epoch": -3691940400000, "end_epoch": -2492535600000 }, "geometry": { "type": "Point", "coordinates": [ -78.8140238, 36.0855526 ] } },
{ "type": "Feature", "properties": { "id": null, "name": "Arnold", "start_date": "1824-03-01", "end_date": "1891-01-06", "start_epoch": -4602164400000, "end_epoch": -2492535600000 }, "geometry": { "type": "Point", "coordinates": [ -78.8169387, 36.0708505 ] } },
{ "type": "Feature", "properties": { "id": null, "name": "Geer", "start_date": "1858-07-06", "end_date": "1891-01-06", "start_epoch": -3518276400000, "end_epoch": -2492535600000 }, "geometry": { "type": "Point", "coordinates": [ -78.8049453, 36.0763874 ] } },
{ "type": "Feature", "properties": { "id": null, "name": "Reavis", "start_date": "1824-03-22", "end_date": "1891-01-06", "start_epoch": -4600350000000, "end_epoch": -2492535600000 }, "geometry": { "type": "Point", "coordinates": [ -78.8335418, 36.0713168 ] } },
{ "type": "Feature", "properties": { "id": null, "name": "Leathers", "start_date": "1816-04-25", "end_date": "1891-01-06", "start_epoch": -4849873200000, "end_epoch": -2492535600000 }, "geometry": { "type": "Point", "coordinates": [ -78.8292749, 36.0811562 ] } },
{ "type": "Feature", "properties": { "id": null, "name": "Briggs", "start_date": "1821-10-02", "end_date": "1891-01-06", "start_epoch": -4678282800000, "end_epoch": -2492535600000 }, "geometry": { "type": "Point", "coordinates": [ -78.8255282, 36.0692202 ] } },
{ "type": "Feature", "properties": { "id": null, "name": "Hunt's", "start_date": "1830-09-28", "end_date": "1891-01-06", "start_epoch": -4394631600000, "end_epoch": -2492535600000 }, "geometry": { "type": "Point", "coordinates": [ -78.7751132, 36.0764172 ] } },
{ "type": "Feature", "properties": { "id": null, "name": "Little River", "start_date": "1821-01-27", "end_date": "1891-01-06", "start_epoch": -4699710000000, "end_epoch": -2492535600000 }, "geometry": { "type": "Point", "coordinates": [ -78.8609329, 36.1177626 ] } },
{ "type": "Feature", "properties": { "id": null, "name": "Eno", "start_date": "1805-11-13", "end_date": "1891-01-06", "start_epoch": -5179575600000, "end_epoch": -2492535600000 }, "geometry": { "type": "Point", "coordinates": [ -78.8464495, 36.0835287 ] } },
{ "type": "Feature", "properties": { "id": null, "name": "Red Mill", "start_date": "1806-07-30", "end_date": "1891-01-06", "start_epoch": -5157198000000, "end_epoch": -2492535600000 }, "geometry": { "type": "Point", "coordinates": [ -78.8247886, 36.0912487 ] } },
{ "type": "Feature", "properties": { "id": null, "name": "New Mill", "start_date": "1821-01-25", "end_date": "1891-01-06", "start_epoch": -4699882800000, "end_epoch": -2492535600000 }, "geometry": { "type": "Point", "coordinates": [ -78.8638892, 36.0728428 ] } }
]
}
